ONEWEB-0392             
1 50472U 21132D   25212.62994774 -.00000010  00000+0 -59985-4 0  9999
2 50472  87.9035  69.6361 0001541  95.9460 264.1847 13.17650499177199
ONEWEB-0393             
1 50473U 21132E   25212.60308886  .00000038  00000+0  64102-4 0  9996
2 50473  87.9044  69.6603 0001636  88.6646 271.4673 13.17650311177189
ONEWEB-0394             
1 50474U 21132F   25212.89898580 -.00000190  00000+0 -51461-3 0  9997
2 50474  87.9126  39.0601 0001808  95.1032 265.0306 13.18686329179388
ONEWEB-0395             
1 50475U 21132G   25213.17838225  .00000491  00000+0  13483-2 0  9993
2 50475  87.8803  84.8659 0001463  82.3242 277.8053 13.11415653175041
ONEWEB-0396             
1 50476U 21132H   25212.89239216 -.00000029  00000+0 -10603-3 0  9998
2 50476  87.9124  39.0736 0001785  92.8230 267.3106 13.18684503179425
ONEWEB-0397             
1 50477U 21132J   25212.90724323  .00000034  00000+0  52271-4 0  9991
2 50477  87.9124  39.0719 0001936  93.4450 266.6903 13.18686292179408
ONEWEB-0398             
1 50478U 21132K   25212.68837964 -.00000195  00000+0 -58740-3 0  9999
2 50478  87.8807  84.9268 0001501  67.3393 292.7893 13.11418539173602
ONEWEB-0399             
1 50479U 21132L   25212.67480996 -.00000524  00000+0 -15145-2 0  9995
2 50479  87.8805  84.9536 0001869  90.0616 270.0726 13.11417399173592
ONEWEB-0400             
1 50480U 21132M   25213.03756289  .00000049  00000+0  92360-4 0  9995
2 50480  87.9123  39.0363 0001642  85.0578 275.0742 13.18686189180691
ONEWEB-0401             
1 50481U 21132N   25212.55096108  .00000059  00000+0  11680-3 0  9995
2 50481  87.9125  39.1288 0002031  90.8523 269.2841 13.18686719179353
ONEWEB-0402             
1 50482U 21132P   25212.89406086 -.00000027  00000+0 -10094-3 0  9998
2 50482  87.9124  39.0543 0002408  92.4833 267.6574 13.18685497179421
ONEWEB-0403             
1 50483U 21132Q   25213.07055758 -.00000025  00000+0 -95448-4 0  9991
2 50483  87.9126  39.0374 0001722  91.7652 268.3677 13.18686692180685
ONEWEB-0404             
1 50484U 21132R   25212.65617009 -.00000062  00000+0 -21042-3 0  9997
2 50484  87.8809  84.9616 0001533  90.3386 269.7918 13.11415357173686
ONEWEB-0405             
1 50485U 21132S   25212.55424964  .00000037  00000+0  62161-4 0  9991
2 50485  87.9124  39.1270 0002083  94.0836 266.0534 13.18687413179735
ONEWEB-0406             
1 50486U 21132T   25213.07549549  .00000032  00000+0  47260-4 0  9995
2 50486  87.9126  39.0453 0001282  97.5624 262.5654 13.18685810180727
ONEWEB-0407             
1 50487U 21132U   25213.06890820  .00000008  00000+0 -12332-4 0  9992
2 50487  87.9125  39.0318 0001903  92.7573 267.3777 13.18685761180664
ONEWEB-0409             
1 50488U 21132V   25213.18855523  .00000163  00000+0  42390-3 0  9994
2 50488  87.8799  84.8163 0001430  82.7815 277.3476 13.11416312174926
