[{"OBJECT_NAME":"ONEWEB-0392","OBJECT_ID":"2021-132D","EPOCH":"2025-07-31T15:07:07.484736","MEAN_MOTION":13.17650499,"ECCENTRICITY":0.0001541,"INCLINATION":87.9035,"RA_OF_ASC_NODE":69.6361,"ARG_OF_PERICENTER":95.946,"MEAN_ANOMALY":264.1847,"EPHEMERIS_TYPE":0,"CLASSIFICATION_TYPE":"U","NORAD_CAT_ID":50472,"ELEMENT_SET_NO":999,"REV_AT_EPOCH":17719,"BSTAR":-5.9985e-5,"MEAN_MOTION_DOT":-1.0e-7,"MEAN_MOTION_DDOT":0},{"OBJECT_NAME":"ONEWEB-0393","OBJECT_ID":"2021-132E","EPOCH":"2025-07-31T14:28:26.877504","MEAN_MOTION":13.17650311,"ECCENTRICITY":0.0001636,"INCLINATION":87.9044,"RA_OF_ASC_NODE":69.6603,"ARG_OF_PERICENTER":88.6646,"MEAN_ANOMALY":271.4673,"EPHEMERIS_TYPE":0,"CLASSIFICATION_TYPE":"U","NORAD_CAT_ID":50473,"ELEMENT_SET_NO":999,"REV_AT_EPOCH":17718,"BSTAR":6.4102e-5,"MEAN_MOTION_DOT":3.8e-7,"MEAN_MOTION_DDOT":0},{"OBJECT_NAME":"ONEWEB-0394","OBJECT_ID":"2021-132F","EPOCH":"2025-07-31T21:34:32.373120","MEAN_MOTION":13.18686329,"ECCENTRICITY":0.0001808,"INCLINATION":87.9126,"RA_OF_ASC_NODE":39.0601,"ARG_OF_PERICENTER":95.1032,"MEAN_ANOMALY":265.0306,"EPHEMERIS_TYPE":0,"CLASSIFICATION_TYPE":"U","NORAD_CAT_ID":50474,"ELEMENT_SET_NO":999,"REV_AT_EPOCH":17938,"BSTAR":-0.00051461,"MEAN_MOTION_DOT":-1.9e-6,"MEAN_MOTION_DDOT":0},{"OBJECT_NAME":"ONEWEB-0395","OBJECT_ID":"2021-132G","EPOCH":"2025-08-01T04:16:52.226400","MEAN_MOTION":13.11415653,"ECCENTRICITY":0.0001463,"INCLINATION":87.8803,"RA_OF_ASC_NODE":84.8659,"ARG_OF_PERICENTER":82.3242,"MEAN_ANOMALY":277.8053,"EPHEMERIS_TYPE":0,"CLASSIFICATION_TYPE":"U","NORAD_CAT_ID":50475,"ELEMENT_SET_NO":999,"REV_AT_EPOCH":17504,"BSTAR":0.0013483,"MEAN_MOTION_DOT":4.91e-6,"MEAN_MOTION_DDOT":0},{"OBJECT_NAME":"ONEWEB-0396","OBJECT_ID":"2021-132H","EPOCH":"2025-07-31T21:25:02.682624","MEAN_MOTION":13.18684503,"ECCENTRICITY":0.0001785,"INCLINATION":87.9124,"RA_OF_ASC_NODE":39.0736,"ARG_OF_PERICENTER":92.823,"MEAN_ANOMALY":267.3106,"EPHEMERIS_TYPE":0,"CLASSIFICATION_TYPE":"U","NORAD_CAT_ID":50476,"ELEMENT_SET_NO":999,"REV_AT_EPOCH":17942,"BSTAR":-0.00010603,"MEAN_MOTION_DOT":-2.9e-7,"MEAN_MOTION_DDOT":0},{"OBJECT_NAME":"ONEWEB-0397","OBJECT_ID":"2021-132J","EPOCH":"2025-07-31T21:46:25.815072","MEAN_MOTION":13.18686292,"ECCENTRICITY":0.0001936,"INCLINATION":87.9124,"RA_OF_ASC_NODE":39.0719,"ARG_OF_PERICENTER":93.445,"MEAN_ANOMALY":266.6903,"EPHEMERIS_TYPE":0,"CLASSIFICATION_TYPE":"U","NORAD_CAT_ID":50477,"ELEMENT_SET_NO":999,"REV_AT_EPOCH":17940,"BSTAR":5.2271e-5,"MEAN_MOTION_DOT":3.4e-7,"MEAN_MOTION_DDOT":0},{"OBJECT_NAME":"ONEWEB-0398","OBJECT_ID":"2021-132K","EPOCH":"2025-07-31T16:31:16.000896","MEAN_MOTION":13.11418539,"ECCENTRICITY":0.0001501,"INCLINATION":87.8807,"RA_OF_ASC_NODE":84.9268,"ARG_OF_PERICENTER":67.3393,"MEAN_ANOMALY":292.7893,"EPHEMERIS_TYPE":0,"CLASSIFICATION_TYPE":"U","NORAD_CAT_ID":50478,"ELEMENT_SET_NO":999,"REV_AT_EPOCH":17360,"BSTAR":-0.0005874,"MEAN_MOTION_DOT":-1.95e-6,"MEAN_MOTION_DDOT":0},{"OBJECT_NAME":"ONEWEB-0399","OBJECT_ID":"2021-132L","EPOCH":"2025-07-31T16:11:43.580544","MEAN_MOTION":13.11417399,"ECCENTRICITY":0.0001869,"INCLINATION":87.8805,"RA_OF_ASC_NODE":84.9536,"ARG_OF_PERICENTER":90.0616,"MEAN_ANOMALY":270.0726,"EPHEMERIS_TYPE":0,"CLASSIFICATION_TYPE":"U","NORAD_CAT_ID":50479,"ELEMENT_SET_NO":999,"REV_AT_EPOCH":17359,"BSTAR":-0.0015145,"MEAN_MOTION_DOT":-5.24e-6,"MEAN_MOTION_DDOT":0},{"OBJECT_NAME":"ONEWEB-0400","OBJECT_ID":"2021-132M","EPOCH":"2025-08-01T00:54:05.433696","MEAN_MOTION":13.18686189,"ECCENTRICITY":0.0001642,"INCLINATION":87.9123,"RA_OF_ASC_NODE":39.0363,"ARG_OF_PERICENTER":85.0578,"MEAN_ANOMALY":275.0742,"EPHEMERIS_TYPE":0,"CLASSIFICATION_TYPE":"U","NORAD_CAT_ID":50480,"ELEMENT_SET_NO":999,"REV_AT_EPOCH":18069,"BSTAR":9.236e-5,"MEAN_MOTION_DOT":4.9e-7,"MEAN_MOTION_DDOT":0},{"OBJECT_NAME":"ONEWEB-0401","OBJECT_ID":"2021-132N","EPOCH":"2025-07-31T13:13:23.037312","MEAN_MOTION":13.18686719,"ECCENTRICITY":0.0002031,"INCLINATION":87.9125,"RA_OF_ASC_NODE":39.1288,"ARG_OF_PERICENTER":90.8523,"MEAN_ANOMALY":269.2841,"EPHEMERIS_TYPE":0,"CLASSIFICATION_TYPE":"U","NORAD_CAT_ID":50481,"ELEMENT_SET_NO":999,"REV_AT_EPOCH":17935,"BSTAR":0.0001168,"MEAN_MOTION_DOT":5.9e-7,"MEAN_MOTION_DDOT":0},{"OBJECT_NAME":"ONEWEB-0402","OBJECT_ID":"2021-132P","EPOCH":"2025-07-31T21:27:26.858304","MEAN_MOTION":13.18685497,"ECCENTRICITY":0.0002408,"INCLINATION":87.9124,"RA_OF_ASC_NODE":39.0543,"ARG_OF_PERICENTER":92.4833,"MEAN_ANOMALY":267.6574,"EPHEMERIS_TYPE":0,"CLASSIFICATION_TYPE":"U","NORAD_CAT_ID":50482,"ELEMENT_SET_NO":999,"REV_AT_EPOCH":17942,"BSTAR":-0.00010094,"MEAN_MOTION_DOT":-2.7e-7,"MEAN_MOTION_DDOT":0},{"OBJECT_NAME":"ONEWEB-0403","OBJECT_ID":"2021-132Q","EPOCH":"2025-08-01T01:41:36.174912","MEAN_MOTION":13.18686692,"ECCENTRICITY":0.0001722,"INCLINATION":87.9126,"RA_OF_ASC_NODE":39.0374,"ARG_OF_PERICENTER":91.7652,"MEAN_ANOMALY":268.3677,"EPHEMERIS_TYPE":0,"CLASSIFICATION_TYPE":"U","NORAD_CAT_ID":50483,"ELEMENT_SET_NO":999,"REV_AT_EPOCH":18068,"BSTAR":-9.5448e-5,"MEAN_MOTION_DOT":-2.5e-7,"MEAN_MOTION_DDOT":0},{"OBJECT_NAME":"ONEWEB-0404","OBJECT_ID":"2021-132R","EPOCH":"2025-07-31T15:44:53.095776","MEAN_MOTION":13.11415357,"ECCENTRICITY":0.0001533,"INCLINATION":87.8809,"RA_OF_ASC_NODE":84.9616,"ARG_OF_PERICENTER":90.3386,"MEAN_ANOMALY":269.7918,"EPHEMERIS_TYPE":0,"CLASSIFICATION_TYPE":"U","NORAD_CAT_ID":50484,"ELEMENT_SET_NO":999,"REV_AT_EPOCH":17368,"BSTAR":-0.00021042,"MEAN_MOTION_DOT":-6.2e-7,"MEAN_MOTION_DDOT":0},{"OBJECT_NAME":"ONEWEB-0405","OBJECT_ID":"2021-132S","EPOCH":"2025-07-31T13:18:07.168896","MEAN_MOTION":13.18687413,"ECCENTRICITY":0.0002083,"INCLINATION":87.9124,"RA_OF_ASC_NODE":39.127,"ARG_OF_PERICENTER":94.0836,"MEAN_ANOMALY":266.0534,"EPHEMERIS_TYPE":0,"CLASSIFICATION_TYPE":"U","NORAD_CAT_ID":50485,"ELEMENT_SET_NO":999,"REV_AT_EPOCH":17973,"BSTAR":6.2161e-5,"MEAN_MOTION_DOT":3.7e-7,"MEAN_MOTION_DDOT":0},{"OBJECT_NAME":"ONEWEB-0406","OBJECT_ID":"2021-132T","EPOCH":"2025-08-01T01:48:42.810336","MEAN_MOTION":13.1868581,"ECCENTRICITY":0.0001282,"INCLINATION":87.9126,"RA_OF_ASC_NODE":39.0453,"ARG_OF_PERICENTER":97.5624,"MEAN_ANOMALY":262.5654,"EPHEMERIS_TYPE":0,"CLASSIFICATION_TYPE":"U","NORAD_CAT_ID":50486,"ELEMENT_SET_NO":999,"REV_AT_EPOCH":18072,"BSTAR":4.726e-5,"MEAN_MOTION_DOT":3.2e-7,"MEAN_MOTION_DDOT":0},{"OBJECT_NAME":"ONEWEB-0407","OBJECT_ID":"2021-132U","EPOCH":"2025-08-01T01:39:13.668480","MEAN_MOTION":13.18685761,"ECCENTRICITY":0.0001903,"INCLINATION":87.9125,"RA_OF_ASC_NODE":39.0318,"ARG_OF_PERICENTER":92.7573,"MEAN_ANOMALY":267.3777,"EPHEMERIS_TYPE":0,"CLASSIFICATION_TYPE":"U","NORAD_CAT_ID":50487,"ELEMENT_SET_NO":999,"REV_AT_EPOCH":18066,"BSTAR":-1.2332e-5,"MEAN_MOTION_DOT":8.0e-8,"MEAN_MOTION_DDOT":0},{"OBJECT_NAME":"ONEWEB-0409","OBJECT_ID":"2021-132V","EPOCH":"2025-08-01T04:31:31.171872","MEAN_MOTION":13.11416312,"ECCENTRICITY":0.000143,"INCLINATION":87.8799,"RA_OF_ASC_NODE":84.8163,"ARG_OF_PERICENTER":82.7815,"MEAN_ANOMALY":277.3476,"EPHEMERIS_TYPE":0,"CLASSIFICATION_TYPE":"U","NORAD_CAT_ID":50488,"ELEMENT_SET_NO":999,"REV_AT_EPOCH":17492,"BSTAR":0.0004239,"MEAN_MOTION_DOT":1.63e-6,"MEAN_MOTION_DDOT":0}]
